EOSSAT-1                
1 55053U 23001AW  26068.73619225  .00007695  00000+0  24844-3 0  9992
2 55053  97.3357 130.2294 0011263 110.3168 249.9285 15.32339828176689
STARLINK-30423          
1 57843U 23141D   26068.87947193  .00000569  00000+0  31327-4 0  9997
2 57843  53.1597 283.2756 0001149  80.3701 279.7429 15.30190777140359
